{
    "links": {
        "self": "http://www.neowsapp.com/rest/v1/neo/3802425?api_key=iIulBulltgU6a56xZRHN4H3l9WmuAYTsLGpBGhQ2"
    },
    "id": "3802425",
    "neo_reference_id": "3802425",
    "name": "(2018 GN1)",
    "designation": "2018 GN1",
    "nasa_jpl_url": "http://ssd.jpl.nasa.gov/sbdb.cgi?sstr=3802425",
    "absolute_magnitude_h": 27.4,
    "estimated_diameter": {
        "kilometers": {
            "estimated_diameter_min": 0.0088014652,
            "estimated_diameter_max": 0.0196806745
        },
        "meters": {
            "estimated_diameter_min": 8.801465209,
            "estimated_diameter_max": 19.6806745089
        },
        "miles": {
            "estimated_diameter_min": 0.0054689752,
            "estimated_diameter_max": 0.0122290004
        },
        "feet": {
            "estimated_diameter_min": 28.8761991163,
            "estimated_diameter_max": 64.5691441559
        }
    },
    "is_potentially_hazardous_asteroid": false,
    "close_approach_data": [
        {
            "close_approach_date": "2011-05-07",
            "close_approach_date_full": "2011-May-07 15:49",
            "epoch_date_close_approach": 1304783340000,
            "relative_velocity": {
                "kilometers_per_second": "17.9688867316",
                "kilometers_per_hour": "64687.9922338781",
                "miles_per_hour": "40194.6027299894"
            },
            "miss_distance": {
                "astronomical": "0.3043761063",
                "lunar": "118.4023053507",
                "kilometers": "45534017.181373581",
                "miles": "28293526.2882581778"
            },
            "orbiting_body": "Earth"
        },
        {
            "close_approach_date": "2018-04-09",
            "close_approach_date_full": "2018-Apr-09 21:33",
            "epoch_date_close_approach": 1523309580000,
            "relative_velocity": {
                "kilometers_per_second": "8.8317924138",
                "kilometers_per_hour": "31794.4526897609",
                "miles_per_hour": "19755.8364504795"
            },
            "miss_distance": {
                "astronomical": "0.0051268381",
                "lunar": "1.9943400209",
                "kilometers": "766964.059594847",
                "miles": "476569.3678170086"
            },
            "orbiting_body": "Earth"
        },
        {
            "close_approach_date": "2018-04-10",
            "close_approach_date_full": "2018-Apr-10 00:25",
            "epoch_date_close_approach": 1523319900000,
            "relative_velocity": {
                "kilometers_per_second": "9.7764261045",
                "kilometers_per_hour": "35195.1339762736",
                "miles_per_hour": "21868.8875532018"
            },
            "miss_distance": {
                "astronomical": "0.0070203824",
                "lunar": "2.7309287536",
                "kilometers": "1050234.253625488",
                "miles": "652585.3044202144"
            },
            "orbiting_body": "Moon"
        },
        {
            "close_approach_date": "2025-05-02",
            "close_approach_date_full": "2025-May-02 12:34",
            "epoch_date_close_approach": 1746189240000,
            "relative_velocity": {
                "kilometers_per_second": "15.6181347661",
                "kilometers_per_hour": "56225.2851580712",
                "miles_per_hour": "34936.2056583582"
            },
            "miss_distance": {
                "astronomical": "0.2239390289",
                "lunar": "87.1122822421",
                "kilometers": "33500801.733308443",
                "miles": "20816432.9262567934"
            },
            "orbiting_body": "Earth"
        },
        {
            "close_approach_date": "2079-02-09",
            "close_approach_date_full": "2079-Feb-09 04:43",
            "epoch_date_close_approach": 3443143380000,
            "relative_velocity": {
                "kilometers_per_second": "7.7418000862",
                "kilometers_per_hour": "27870.4803103705",
                "miles_per_hour": "17317.6326128522"
            },
            "miss_distance": {
                "astronomical": "0.0454322883",
                "lunar": "17.6731601487",
                "kilometers": "6796573.558905921",
                "miles": "4223194.9773508698"
            },
            "orbiting_body": "Earth"
        }
    ],
    "orbital_data": {
        "orbit_id": "3",
        "orbit_determination_date": "2018-04-16 06:28:24",
        "first_observation_date": "2018-04-10",
        "last_observation_date": "2018-04-15",
        "data_arc_in_days": 5,
        "observations_used": 25,
        "orbit_uncertainty": "7",
        "minimum_orbit_intersection": ".00390164",
        "jupiter_tisserand_invariant": "3.974",
        "epoch_osculation": "2459000.5",
        "eccentricity": ".4723964672897772",
        "semi_major_axis": "1.765509129138394",
        "inclination": "1.454228985044716",
        "ascending_node_longitude": "190.1889479823604",
        "orbital_period": "856.8471927673354",
        "perihelion_distance": ".9314888535655653",
        "perihelion_argument": "330.3322246435422",
        "aphelion_distance": "2.599529404711222",
        "perihelion_time": "2459044.201790932359",
        "mean_anomaly": "341.6389143029832",
        "mean_motion": ".4201449255348764",
        "equinox": "J2000",
        "orbit_class": {
            "orbit_class_type": "APO",
            "orbit_class_description": "Near-Earth asteroid orbits which cross the Earth’s orbit similar to that of 1862 Apollo",
            "orbit_class_range": "a (semi-major axis) > 1.0 AU; q (perihelion) < 1.017 AU"
        }
    },
    "is_sentry_object": false
}